     2.10           GLONASS NAV DATA                        RINEX VERSION / TYPE
RTKCONV 2.4.2                           20200616 120336 UTC PGM / RUN BY / DATE 
log: C:\Users\Z\Desktop\glnephexercise\logs\BINR.bin        COMMENT             
format: NVS BINR                                            COMMENT             
                                                            END OF HEADER       
 3 20  2 10 13 45  0.0  .979844480753E-05  .000000000000E+00  .495000000000E+05
     .230369506836E+05  .755860328674E+00  .558793544769E-08  .000000000000E+00
    -.909117333984E+04 -.358527183533E+00  .000000000000E+00  .500000000000E+01
     .604105908203E+04 -.344790649414E+01 -.279396772385E-08  .000000000000E+00
 3 20  2 10 13 45  0.0  .979844480753E-05  .000000000000E+00  .495000000000E+05
     .230369506836E+05  .755860328674E+00  .558793544769E-08  .000000000000E+00
    -.909117333984E+04 -.358527183533E+00  .000000000000E+00  .500000000000E+01
     .604105908203E+04 -.344790649414E+01 -.279396772385E-08  .000000000000E+00
 3 20  2 10 13 45  0.0  .979844480753E-05  .000000000000E+00  .495000000000E+05
     .230369506836E+05  .755860328674E+00  .558793544769E-08  .000000000000E+00
    -.909117333984E+04 -.358527183533E+00  .000000000000E+00  .500000000000E+01
     .604105908203E+04 -.344790649414E+01 -.279396772385E-08  .000000000000E+00
 3 20  2 10 13 45  0.0  .979844480753E-05  .000000000000E+00  .495000000000E+05
     .230369506836E+05  .755860328674E+00  .558793544769E-08  .000000000000E+00
    -.909117333984E+04 -.358527183533E+00  .000000000000E+00  .500000000000E+01
     .604105908203E+04 -.344790649414E+01 -.279396772385E-08  .000000000000E+00
 3 20  2 10 13 45  0.0  .979844480753E-05  .000000000000E+00  .495000000000E+05
     .230369506836E+05  .755860328674E+00  .558793544769E-08  .000000000000E+00
    -.909117333984E+04 -.358527183533E+00  .000000000000E+00  .500000000000E+01
     .604105908203E+04 -.344790649414E+01 -.279396772385E-08  .000000000000E+00
 3 20  2 10 13 45  0.0  .979844480753E-05  .000000000000E+00  .495000000000E+05
     .230369506836E+05  .755860328674E+00  .558793544769E-08  .000000000000E+00
    -.909117333984E+04 -.358527183533E+00  .000000000000E+00  .500000000000E+01
     .604105908203E+04 -.344790649414E+01 -.279396772385E-08  .000000000000E+00
